[{"OBJECT_NAME":"STARLINK-34251","OBJECT_ID":"2025-117C","EPOCH":"2026-03-09T05:45:20.714112","MEAN_MOTION":15.30197405,"ECCENTRICITY":0.00011356,"INCLINATION":53.1616,"RA_OF_ASC_NODE":41.9196,"ARG_OF_PERICENTER":108.161,"MEAN_ANOMALY":251.9514,"EPHEMERIS_TYPE":0,"CLASSIFICATION_TYPE":"U","NORAD_CAT_ID":64205,"ELEMENT_SET_NO":999,"REV_AT_EPOCH":4445,"BSTAR":0.00085047229,"MEAN_MOTION_DOT":0.00024912,"MEAN_MOTION_DDOT":0},{"OBJECT_NAME":"CZ-4C DEB","OBJECT_ID":"2015-069C","EPOCH":"2026-03-07T10:00:21.558816","MEAN_MOTION":15.31048021,"ECCENTRICITY":0.00583916,"INCLINATION":97.4862,"RA_OF_ASC_NODE":135.8649,"ARG_OF_PERICENTER":162.5456,"MEAN_ANOMALY":197.781,"EPHEMERIS_TYPE":0,"CLASSIFICATION_TYPE":"U","NORAD_CAT_ID":42670,"ELEMENT_SET_NO":999,"REV_AT_EPOCH":51749,"BSTAR":0.00045809658,"MEAN_MOTION_DOT":0.00014416,"MEAN_MOTION_DDOT":0}]
